COSMOS 2426 (717)       
1 29671U 06062B   20151.40723691 -.00000015  00000-0  10000-3 0  9991
2 29671  64.9746 268.5212 0020086 172.3682 281.3569  2.12962423104510
COSMOS 2433 (720)       
1 32275U 07052A   20151.39090466 -.00000057  00000-0  10000-3 0  9996
2 32275  65.9755  29.5222 0001752 283.7380 287.7308  2.13104364 98024
COSMOS 2432 (719)       
1 32276U 07052B   20151.45256735 -.00000057  00000-0  10000-3 0  9997
2 32276  65.9880  29.6106 0011093 336.9090 232.1076  2.13103795 98027
COSMOS 2434 (721)       
1 32393U 07065A   20151.26821297 -.00000014  00000-0  00000-0 0  9990
2 32393  64.5807 267.0434 0003888 105.9486 258.9695  2.13103177 96732
COSMOS 2436 (723)       
1 32395U 07065C   20151.32618819 -.00000014  00000-0  10000-3 0  9997
2 32395  64.5907 267.0908 0013849   4.5959 181.0490  2.13103107 96662
COSMOS 2456 (730)       
1 36111U 09070A   20151.37158668  .00000111  00000-0  00000-0 0  9994
2 36111  64.2270 146.7112 0006404 303.7982 313.8541  2.13102964 81397
COSMOS 2457 (733)       
1 36112U 09070B   20151.45482333  .00000111  00000-0  00000+0 0  9992
2 36112  64.2103 146.6031 0004763 197.4297 247.4337  2.13101534 81404
COSMOS 2459 (731)       
1 36400U 10007A   20151.10737060 -.00000056  00000-0  10000-3 0  9990
2 36400  65.8770  28.5051 0026571 351.9913 217.3162  2.13105316 79742
COSMOS 2461 (735)       
1 36401U 10007B   20151.25088912 -.00000057  00000-0  10000-3 0  9993
2 36401  65.8712  28.4717 0008401  58.8851 168.8200  2.13102144 79742
COSMOS 2460 (732)       
1 36402U 10007C   20151.53265926 -.00000057  00000-0  10000-3 0  9997
2 36402  65.8617  28.4207 0001637  39.1602  83.8566  2.13101472 79756
COSMOS 2464 (736)       
1 37139U 10041C   20151.29427255 -.00000014  00000-0  00000-0 0  9990
2 37139  64.1795 266.4902 0026142  12.7932 235.8593  2.13100767 75818
COSMOS 2474 (742)       
1 37829U 11055A   20151.35519810  .00000112  00000-0  00000-0 0  9996
2 37829  64.5459 147.7303 0010603 250.2500 209.6551  2.13101803 67395
COSMOS 2476 (744)       
1 37867U 11064A   20151.27086622  .00000112  00000-0  00000+0 0  9998
2 37867  64.5268 147.7762 0021636 243.2771 198.1932  2.13101998 66742
COSMOS 2477 (745)       
1 37868U 11064B   20151.29591663  .00000112  00000-0  00000+0 0  9997
2 37868  64.5355 147.8336 0019215 244.7199  34.4743  2.13101841 66691
COSMOS 2475 (743)       
1 37869U 11064C   20151.36283642  .00000112  00000-0  00000+0 0  9991
2 37869  64.5416 147.8318 0023700 263.5112  24.3759  2.13102059 66707
COSMOS 2485 (747)       
1 39155U 13019A   20151.31986936  .00000112  00000-0  00000+0 0  9994
2 39155  64.6944 148.0400 0021939 238.8828 284.7526  2.13102015 55210
COSMOS 2492 (754)       
1 39620U 14012A   20151.29413337 -.00000057  00000-0  10000-3 0  9996
2 39620  65.7513  28.2142 0014056 331.6774 207.2956  2.13103375 48160
COSMOS 2500 (755)       
1 40001U 14032A   20151.53103957 -.00000057  00000-0  00000-0 0  9990
2 40001  65.6900  28.1231 0004731 202.7863  18.5273  2.13102707 46383
COSMOS 2501 (702K)      
1 40315U 14075A   20151.36223435 -.00000015  00000-0  00000+0 0  9993
2 40315  63.8988 267.4398 0016303 205.3364  41.6252  2.13098714 42788
COSMOS 2514 (751)       
1 41330U 16008A   20151.23777468 -.00000057  00000-0  00000-0 0  9992
2 41330  65.4919  28.0086 0008165 214.4983 324.2240  2.13103121 33548
COSMOS 2516 (753)       
1 41554U 16032A   20151.25679164 -.00000014  00000-0  00000-0 0  9996
2 41554  64.1206 267.5080 0012428 213.6703 230.4272  2.13101750 31157
COSMOS 2522 (752)       
1 42939U 17055A   20151.41598348 -.00000015  00000-0  00000-0 0  9993
2 42939  64.3538 267.6779 0006740 240.0893 192.7078  2.13101947 20919
COSMOS 2527 (756)       
1 43508U 18053A   20151.45165535  .00000113  00000-0  00000-0 0  9995
2 43508  64.8588 147.8785 0009296 244.2825 247.6608  2.13102663 15209
COSMOS 2529 (757)       
1 43687U 18086A   20151.46239921 -.00000016  00000-0  00000-0 0  9994
2 43687  64.5682 267.7917 0008864 270.0252 154.0030  2.13102146 12224
COSMOS 2534 (758)       
1 44299U 19030A   20151.29318289 -.00000014  00000-0  00000+0 0  9997
2 44299  64.6372 267.6116 0011800 290.5582 138.7063  2.13102049  7869
